{
    "links": {
        "self": "http://www.neowsapp.com/rest/v1/neo/3730731?api_key=iIulBulltgU6a56xZRHN4H3l9WmuAYTsLGpBGhQ2"
    },
    "id": "3730731",
    "neo_reference_id": "3730731",
    "name": "(2015 TK238)",
    "designation": "2015 TK238",
    "nasa_jpl_url": "http://ssd.jpl.nasa.gov/sbdb.cgi?sstr=3730731",
    "absolute_magnitude_h": 21.9,
    "estimated_diameter": {
        "kilometers": {
            "estimated_diameter_min": 0.1108038821,
            "estimated_diameter_max": 0.2477650126
        },
        "meters": {
            "estimated_diameter_min": 110.8038821264,
            "estimated_diameter_max": 247.7650126055
        },
        "miles": {
            "estimated_diameter_min": 0.068850319,
            "estimated_diameter_max": 0.1539539936
        },
        "feet": {
            "estimated_diameter_min": 363.5298086356,
            "estimated_diameter_max": 812.8773639568
        }
    },
    "is_potentially_hazardous_asteroid": true,
    "close_approach_data": [
        {
            "close_approach_date": "1944-06-12",
            "close_approach_date_full": "1944-Jun-12 08:00",
            "epoch_date_close_approach": -806428800000,
            "relative_velocity": {
                "kilometers_per_second": "23.7046039297",
                "kilometers_per_hour": "85336.5741469362",
                "miles_per_hour": "53024.828530356"
            },
            "miss_distance": {
                "astronomical": "0.4355015753",
                "lunar": "169.4101127917",
                "kilometers": "65150108.046524611",
                "miles": "40482399.9462811918"
            },
            "orbiting_body": "Earth"
        },
        {
            "close_approach_date": "1955-10-27",
            "close_approach_date_full": "1955-Oct-27 13:36",
            "epoch_date_close_approach": -447503040000,
            "relative_velocity": {
                "kilometers_per_second": "22.199553559",
                "kilometers_per_hour": "79918.3928122229",
                "miles_per_hour": "49658.181356017"
            },
            "miss_distance": {
                "astronomical": "0.3769198449",
                "lunar": "146.6218196661",
                "kilometers": "56386405.957770363",
                "miles": "35036887.9800744894"
            },
            "orbiting_body": "Earth"
        },
        {
            "close_approach_date": "1985-10-22",
            "close_approach_date_full": "1985-Oct-22 00:07",
            "epoch_date_close_approach": 498787620000,
            "relative_velocity": {
                "kilometers_per_second": "19.9601267457",
                "kilometers_per_hour": "71856.4562846849",
                "miles_per_hour": "44648.8075175588"
            },
            "miss_distance": {
                "astronomical": "0.3257267115",
                "lunar": "126.7076907735",
                "kilometers": "48728022.242504505",
                "miles": "30278189.003211969"
            },
            "orbiting_body": "Earth"
        },
        {
            "close_approach_date": "2000-10-27",
            "close_approach_date_full": "2000-Oct-27 13:29",
            "epoch_date_close_approach": 972653340000,
            "relative_velocity": {
                "kilometers_per_second": "22.3314325427",
                "kilometers_per_hour": "80393.1571538993",
                "miles_per_hour": "49953.181454877"
            },
            "miss_distance": {
                "astronomical": "0.3920250413",
                "lunar": "152.4977410657",
                "kilometers": "58646111.165142031",
                "miles": "36441003.6862247878"
            },
            "orbiting_body": "Earth"
        },
        {
            "close_approach_date": "2015-10-05",
            "close_approach_date_full": "2015-Oct-05 22:27",
            "epoch_date_close_approach": 1444084020000,
            "relative_velocity": {
                "kilometers_per_second": "12.6485757043",
                "kilometers_per_hour": "45534.8725355034",
                "miles_per_hour": "28293.5989929632"
            },
            "miss_distance": {
                "astronomical": "0.0608671972",
                "lunar": "23.6773397108",
                "kilometers": "9105603.053989964",
                "miles": "5657959.3746869432"
            },
            "orbiting_body": "Earth"
        }
    ],
    "orbital_data": {
        "orbit_id": "21",
        "orbit_determination_date": "2017-08-10 06:19:27",
        "first_observation_date": "2015-10-03",
        "last_observation_date": "2015-11-29",
        "data_arc_in_days": 57,
        "observations_used": 165,
        "orbit_uncertainty": "6",
        "minimum_orbit_intersection": ".0139227",
        "jupiter_tisserand_invariant": "3.238",
        "epoch_osculation": "2459000.5",
        "eccentricity": ".6070537829049529",
        "semi_major_axis": "2.411249413264609",
        "inclination": "3.672778583817186",
        "ascending_node_longitude": "170.1361161420483",
        "orbital_period": "1367.607989725046",
        "perihelion_distance": ".94749133541498",
        "perihelion_argument": "161.9553385482182",
        "aphelion_distance": "3.875007491114239",
        "perihelion_time": "2458638.573714406613",
        "mean_anomaly": "95.27105997663455",
        "mean_motion": ".2632333261466079",
        "equinox": "J2000",
        "orbit_class": {
            "orbit_class_type": "APO",
            "orbit_class_description": "Near-Earth asteroid orbits which cross the Earth’s orbit similar to that of 1862 Apollo",
            "orbit_class_range": "a (semi-major axis) > 1.0 AU; q (perihelion) < 1.017 AU"
        }
    },
    "is_sentry_object": false
}